{
    "links": {
        "self": "http://www.neowsapp.com/rest/v1/neo/3754549?api_key=iIulBulltgU6a56xZRHN4H3l9WmuAYTsLGpBGhQ2"
    },
    "id": "3754549",
    "neo_reference_id": "3754549",
    "name": "(2016 NW15)",
    "designation": "2016 NW15",
    "nasa_jpl_url": "http://ssd.jpl.nasa.gov/sbdb.cgi?sstr=3754549",
    "absolute_magnitude_h": 25.1,
    "estimated_diameter": {
        "kilometers": {
            "estimated_diameter_min": 0.0253837029,
            "estimated_diameter_max": 0.0567596853
        },
        "meters": {
            "estimated_diameter_min": 25.3837029364,
            "estimated_diameter_max": 56.7596852866
        },
        "miles": {
            "estimated_diameter_min": 0.0157726969,
            "estimated_diameter_max": 0.0352688224
        },
        "feet": {
            "estimated_diameter_min": 83.279867942,
            "estimated_diameter_max": 186.2194458756
        }
    },
    "is_potentially_hazardous_asteroid": false,
    "close_approach_data": [
        {
            "close_approach_date": "2016-07-26",
            "close_approach_date_full": "2016-Jul-26 00:22",
            "epoch_date_close_approach": 1469492520000,
            "relative_velocity": {
                "kilometers_per_second": "7.0327720932",
                "kilometers_per_hour": "25317.9795356427",
                "miles_per_hour": "15731.6078953553"
            },
            "miss_distance": {
                "astronomical": "0.0353523486",
                "lunar": "13.7520636054",
                "kilometers": "5288636.050057482",
                "miles": "3286206.0581059716"
            },
            "orbiting_body": "Earth"
        }
    ],
    "orbital_data": {
        "orbit_id": "5",
        "orbit_determination_date": "2017-04-06 08:25:08",
        "first_observation_date": "2016-07-05",
        "last_observation_date": "2016-08-02",
        "data_arc_in_days": 28,
        "observations_used": 21,
        "orbit_uncertainty": "8",
        "minimum_orbit_intersection": ".0342996",
        "jupiter_tisserand_invariant": "3.706",
        "epoch_osculation": "2457577.5",
        "eccentricity": ".4716448225894154",
        "semi_major_axis": "1.982118062247055",
        "inclination": "6.624631010421274",
        "ascending_node_longitude": "116.8360278651645",
        "orbital_period": "1019.278129022549",
        "perihelion_distance": "1.047262340427267",
        "perihelion_argument": "190.049641391732",
        "aphelion_distance": "2.916973784066843",
        "perihelion_time": "2457599.073851705723",
        "mean_anomaly": "352.3803068142861",
        "mean_motion": ".3531911357160455",
        "equinox": "J2000",
        "orbit_class": {
            "orbit_class_type": "AMO",
            "orbit_class_description": "Near-Earth asteroid orbits similar to that of 1221 Amor",
            "orbit_class_range": "1.017 AU < q (perihelion) < 1.3 AU"
        }
    },
    "is_sentry_object": false
}